[{"OBJECT_NAME":"OBJECT A","OBJECT_ID":"2025-292A","EPOCH":"2026-03-09T21:45:44.016480","MEAN_MOTION":15.05451809,"ECCENTRICITY":0.00146319,"INCLINATION":97.6364,"RA_OF_ASC_NODE":145.598,"ARG_OF_PERICENTER":341.1551,"MEAN_ANOMALY":18.9132,"EPHEMERIS_TYPE":0,"CLASSIFICATION_TYPE":"U","NORAD_CAT_ID":66993,"ELEMENT_SET_NO":999,"REV_AT_EPOCH":1350,"BSTAR":0.00038878249,"MEAN_MOTION_DOT":5.535e-5,"MEAN_MOTION_DDOT":0},{"OBJECT_NAME":"ARIANE 5 R\/B","OBJECT_ID":"2014-054C","EPOCH":"2026-03-09T06:49:09.451488","MEAN_MOTION":2.59407531,"ECCENTRICITY":0.70394728,"INCLINATION":5.7586,"RA_OF_ASC_NODE":80.6205,"ARG_OF_PERICENTER":274.3893,"MEAN_ANOMALY":15.1369,"EPHEMERIS_TYPE":0,"CLASSIFICATION_TYPE":"U","NORAD_CAT_ID":40148,"ELEMENT_SET_NO":999,"REV_AT_EPOCH":10123,"BSTAR":0.001836927,"MEAN_MOTION_DOT":8.567e-5,"MEAN_MOTION_DDOT":0}]
